{"type": "FeatureCollection", "features": [ {"type": "Feature", "properties": {"norad_id": 34079, "name": "IRIDIUM 33 DEB", "group": "iridium-33-debris", "lat": 52.376250171844426, "lon": 177.14630944712889, "alt_km": 614.6931612258277, "timestamp": "2025-12-27T16:33:30.607040+00:00", "meta": {"OBJECT_NAME": "IRIDIUM 33 DEB", "OBJECT_ID": "1997-051CN", "EPOCH": "2025-12-27T06:20:21.474816", "MEAN_MOTION": 14.83933448, "ECCENTRICITY": 0.0003689, "INCLINATION": 86.3777, "RA_OF_ASC_NODE": 2.0544, "ARG_OF_PERICENTER": 310.6611, "MEAN_ANOMALY": 63.5436, "EPHEMERIS_TYPE": 0, "CLASSIFICATION_TYPE": "U", "NORAD_CAT_ID": 34079, "ELEMENT_SET_NO": 999, "REV_AT_EPOCH": 89193, "BSTAR": 0.00218, "MEAN_MOTION_DOT": 0.00018168, "MEAN_MOTION_DDOT": 0}, "tle": {"line1": "1 34079U 97051CN  25361.26413744  .00018168  00000+0  21800-2 0  9999", "line2": "2 34079  86.3777   2.0544 0003689 310.6611  63.5436 14.83933448891936"}}, "geometry": {"type": "Point", "coordinates": [177.14630944712889, 52.376250171844426]}}, {"type": "Feature", "properties": {"norad_id": 34088, "name": "IRIDIUM 33 DEB", "group": "iridium-33-debris", "lat": -71.32425032588203, "lon": 13.068384744398411, "alt_km": 603.5651047556839, "timestamp": "2025-12-27T16:33:30.607049+00:00", "meta": {"OBJECT_NAME": "IRIDIUM 33 DEB", "OBJECT_ID": "1997-051CX", "EPOCH": "2025-12-27T12:35:22.337376", "MEAN_MOTION": 14.92069086, "ECCENTRICITY": 0.0007333, "INCLINATION": 86.3845, "RA_OF_ASC_NODE": 23.9259, "ARG_OF_PERICENTER": 131.6966, "MEAN_ANOMALY": 348.9416, "EPHEMERIS_TYPE": 0, "CLASSIFICATION_TYPE": "U", "NORAD_CAT_ID": 34088, "ELEMENT_SET_NO": 999, "REV_AT_EPOCH": 88962, "BSTAR": 0.0025882, "MEAN_MOTION_DOT": 0.00026378, "MEAN_MOTION_DDOT": 0}, "tle": {"line1": "1 34088U 97051CX  25361.52456409  .00026378  00000+0  25882-2 0  9999", "line2": "2 34088  86.3845  23.9259 0007333 131.6966 348.9416 14.92069086889620"}}, "geometry": {"type": "Point", "coordinates": [13.068384744398411, -71.32425032588203]}}, {"type": "Feature", "properties": {"norad_id": 34091, "name": "IRIDIUM 33 DEB", "group": "iridium-33-debris", "lat": -28.359103148940946, "lon": 58.00143859014013, "alt_km": 626.6975669490794, "timestamp": "2025-12-27T16:33:30.607059+00:00", "meta": {"OBJECT_NAME": "IRIDIUM 33 DEB", "OBJECT_ID": "1997-051DA", "EPOCH": "2025-12-27T03:43:50.479104", "MEAN_MOTION": 14.82901423, "ECCENTRICITY": 0.00343023, "INCLINATION": 86.3407, "RA_OF_ASC_NODE": 60.2263, "ARG_OF_PERICENTER": 241.6734, "MEAN_ANOMALY": 118.1028, "EPHEMERIS_TYPE": 0, "CLASSIFICATION_TYPE": "U", "NORAD_CAT_ID": 34091, "ELEMENT_SET_NO": 999, "REV_AT_EPOCH": 88080, "BSTAR": 0.0057592703, "MEAN_MOTION_DOT": 0.00047447, "MEAN_MOTION_DDOT": 0}, "tle": {"line1": "1 34091U 97051DA  25361.15544536  .00047447  00000+0  57593-2 0  9995", "line2": "2 34091  86.3407  60.2263 0034302 241.6734 118.1028 14.82901423880804"}}, "geometry": {"type": "Point", "coordinates": [58.00143859014013, -28.359103148940946]}}, {"type": "Feature", "properties": {"norad_id": 34097, "name": "IRIDIUM 33 DEB", "group": "iridium-33-debris", "lat": -4.912431249133472, "lon": 175.1351511139975, "alt_km": 814.798677502843, "timestamp": "2025-12-27T16:33:30.607069+00:00", "meta": {"OBJECT_NAME": "IRIDIUM 33 DEB", "OBJECT_ID": "1997-051DG", "EPOCH": "2025-12-26T22:57:25.330752", "MEAN_MOTION": 14.34897502, "ECCENTRICITY": 0.0081165, "INCLINATION": 86.2009, "RA_OF_ASC_NODE": 355.1315, "ARG_OF_PERICENTER": 315.5596, "MEAN_ANOMALY": 43.9106, "EPHEMERIS_TYPE": 0, "CLASSIFICATION_TYPE": "U", "NORAD_CAT_ID": 34097, "ELEMENT_SET_NO": 999, "REV_AT_EPOCH": 87323, "BSTAR": 0.0019362, "MEAN_MOTION_DOT": 5.728e-05, "MEAN_MOTION_DDOT": 0}, "tle": {"line1": "1 34097U 97051DG  25360.95654318  .00005728  00000+0  19362-2 0  9996", "line2": "2 34097  86.2009 355.1315 0081165 315.5596  43.9106 14.34897502873237"}}, "geometry": {"type": "Point", "coordinates": [175.1351511139975, -4.912431249133472]}}, {"type": "Feature", "properties": {"norad_id": 34145, "name": "IRIDIUM 33 DEB", "group": "iridium-33-debris", "lat": 41.01689548682427, "lon": 142.5650832812701, "alt_km": 748.8585605344097, "timestamp": "2025-12-27T16:33:30.607079+00:00", "meta": {"OBJECT_NAME": "IRIDIUM 33 DEB", "OBJECT_ID": "1997-051DY", "EPOCH": "2025-12-27T09:15:44.885088", "MEAN_MOTION": 14.42402475, "ECCENTRICITY": 0.0055366, "INCLINATION": 86.2126, "RA_OF_ASC_NODE": 326.0035, "ARG_OF_PERICENTER": 47.3344, "MEAN_ANOMALY": 313.2501, "EPHEMERIS_TYPE": 0, "CLASSIFICATION_TYPE": "U", "NORAD_CAT_ID": 34145, "ELEMENT_SET_NO": 999, "REV_AT_EPOCH": 87849, "BSTAR": 0.0015408, "MEAN_MOTION_DOT": 5.21e-05, "MEAN_MOTION_DDOT": 0}, "tle": {"line1": "1 34145U 97051DY  25361.38593617  .00005210  00000+0  15408-2 0  9995", "line2": "2 34145  86.2126 326.0035 0055366  47.3344 313.2501 14.42402475878497"}}, "geometry": {"type": "Point", "coordinates": [142.5650832812701, 41.01689548682427]}}, {"type": "Feature", "properties": {"norad_id": 34146, "name": "IRIDIUM 33 DEB", "group": "iridium-33-debris", "lat": 41.198460491191355, "lon": 159.93452422778745, "alt_km": 708.7869566573718, "timestamp": "2025-12-27T16:33:30.607089+00:00", "meta": {"OBJECT_NAME": "IRIDIUM 33 DEB", "OBJECT_ID": "1997-051DZ", "EPOCH": "2025-12-27T11:32:41.786016", "MEAN_MOTION": 14.49145613, "ECCENTRICITY": 0.0027213, "INCLINATION": 86.2844, "RA_OF_ASC_NODE": 343.2878, "ARG_OF_PERICENTER": 171.1363, "MEAN_ANOMALY": 318.529, "EPHEMERIS_TYPE": 0, "CLASSIFICATION_TYPE": "U", "NORAD_CAT_ID": 34146, "ELEMENT_SET_NO": 999, "REV_AT_EPOCH": 88320, "BSTAR": 0.00099857, "MEAN_MOTION_DOT": 3.835e-05, "MEAN_MOTION_DDOT": 0}, "tle": {"line1": "1 34146U 97051DZ  25361.48103919  .00003835  00000+0  99857-3 0  9991", "line2": "2 34146  86.2844 343.2878 0027213 171.1363 318.5290 14.49145613883201"}}, "geometry": {"type": "Point", "coordinates": [159.93452422778745, 41.198460491191355]}}, {"type": "Feature", "properties": {"norad_id": 34159, "name": "IRIDIUM 33 DEB", "group": "iridium-33-debris", "lat": 4.848266550364311, "lon": 42.17582467118239, "alt_km": 777.7741866693923, "timestamp": "2025-12-27T16:33:30.607098+00:00", "meta": {"OBJECT_NAME": "IRIDIUM 33 DEB", "OBJECT_ID": "1997-051EN", "EPOCH": "2025-12-27T09:51:29.456640", "MEAN_MOTION": 14.38529868, "ECCENTRICITY": 0.0026334, "INCLINATION": 86.3493, "RA_OF_ASC_NODE": 41.9846, "ARG_OF_PERICENTER": 236.0798, "MEAN_ANOMALY": 123.7896, "EPHEMERIS_TYPE": 0, "CLASSIFICATION_TYPE": "U", "NORAD_CAT_ID": 34159, "ELEMENT_SET_NO": 999, "REV_AT_EPOCH": 88170, "BSTAR": 0.00043614, "MEAN_MOTION_DOT": 1.357e-05, "MEAN_MOTION_DDOT": 0}, "tle": {"line1": "1 34159U 97051EN  25361.41075760  .00001357  00000+0  43614-3 0  9997", "line2": "2 34159  86.3493  41.9846 0026334 236.0798 123.7896 14.38529868881706"}}, "geometry": {"type": "Point", "coordinates": [42.17582467118239, 4.848266550364311]}}, {"type": "Feature", "properties": {"norad_id": 34350, "name": "IRIDIUM 33 DEB", "group": "iridium-33-debris", "lat": 43.547916950059125, "lon": -0.18044021037427557, "alt_km": 725.3476109586745, "timestamp": "2025-12-27T16:33:30.607113+00:00", "meta": {"OBJECT_NAME": "IRIDIUM 33 DEB", "OBJECT_ID": "1997-051ES", "EPOCH": "2025-12-27T11:56:39.334272", "MEAN_MOTION": 14.45422738, "ECCENTRICITY": 0.0023548, "INCLINATION": 86.3275, "RA_OF_ASC_NODE": 356.4028, "ARG_OF_PERICENTER": 90.0616, "MEAN_ANOMALY": 34.0808, "EPHEMERIS_TYPE": 0, "CLASSIFICATION_TYPE": "U", "NORAD_CAT_ID": 34350, "ELEMENT_SET_NO": 999, "REV_AT_EPOCH": 88506, "BSTAR": 0.00040811, "MEAN_MOTION_DOT": 1.461e-05, "MEAN_MOTION_DDOT": 0}, "tle": {"line1": "1 34350U 97051ES  25361.49767748  .00001461  00000+0  40811-3 0  9994", "line2": "2 34350  86.3275 356.4028 0023548  90.0616  34.0808 14.45422738885060"}}, "geometry": {"type": "Point", "coordinates": [-0.18044021037427557, 43.547916950059125]}}, {"type": "Feature", "properties": {"norad_id": 34366, "name": "IRIDIUM 33 DEB", "group": "iridium-33-debris", "lat": 59.640734420458, "lon": -143.41568334426057, "alt_km": 691.8304623550139, "timestamp": "2025-12-27T16:33:30.607123+00:00", "meta": {"OBJECT_NAME": "IRIDIUM 33 DEB", "OBJECT_ID": "1997-051FJ", "EPOCH": "2025-12-27T09:28:17.150016", "MEAN_MOTION": 14.54169141, "ECCENTRICITY": 0.0022979, "INCLINATION": 86.3683, "RA_OF_ASC_NODE": 42.9376, "ARG_OF_PERICENTER": 94.2033, "MEAN_ANOMALY": 280.9076, "EPHEMERIS_TYPE": 0, "CLASSIFICATION_TYPE": "U", "NORAD_CAT_ID": 34366, "ELEMENT_SET_NO": 999, "REV_AT_EPOCH": 88395, "BSTAR": 0.00097859, "MEAN_MOTION_DOT": 4.173e-05, "MEAN_MOTION_DDOT": 0}, "tle": {"line1": "1 34366U 97051FJ  25361.39464294  .00004173  00000+0  97859-3 0  9997", "line2": "2 34366  86.3683  42.9376 0022979  94.2033 280.9076 14.54169141883950"}}, "geometry": {"type": "Point", "coordinates": [-143.41568334426057, 59.640734420458]}}, {"type": "Feature", "properties": {"norad_id": 34375, "name": "IRIDIUM 33 DEB", "group": "iridium-33-debris", "lat": -74.28039671314764, "lon": 9.481918722012635, "alt_km": 913.9002461818027, "timestamp": "2025-12-27T16:33:30.607133+00:00", "meta": {"OBJECT_NAME": "IRIDIUM 33 DEB", "OBJECT_ID": "1997-051FT", "EPOCH": "2025-12-27T12:05:31.795008", "MEAN_MOTION": 14.18019347, "ECCENTRICITY": 0.010367, "INCLINATION": 86.4324, "RA_OF_ASC_NODE": 176.7506, "ARG_OF_PERICENTER": 80.567, "MEAN_ANOMALY": 304.5575, "EPHEMERIS_TYPE": 0, "CLASSIFICATION_TYPE": "U", "NORAD_CAT_ID": 34375, "ELEMENT_SET_NO": 999, "REV_AT_EPOCH": 86921, "BSTAR": 0.00045485, "MEAN_MOTION_DOT": 1.002e-05, "MEAN_MOTION_DDOT": 0}, "tle": {"line1": "1 34375U 97051FT  25361.50384022  .00001002  00000+0  45485-3 0  9996", "line2": "2 34375  86.4324 176.7506 0103670  80.5670 304.5575 14.18019347869219"}}, "geometry": {"type": "Point", "coordinates": [9.481918722012635, -74.28039671314764]}}]}